OBJECT_NAME,OBJECT_ID,EPOCH,MEAN_MOTION,ECCENTRICITY,INCLINATION,RA_OF_ASC_NODE,ARG_OF_PERICENTER,MEAN_ANOMALY,EPHEMERIS_TYPE,CLASSIFICATION_TYPE,NORAD_CAT_ID,ELEMENT_SET_NO,REV_AT_EPOCH,BSTAR,MEAN_MOTION_DOT,MEAN_MOTION_DDOT
STARLINK-4671,2022-104F,2024-08-20T07:54:33.033600,15.10674852,.0002564,53.2158,266.6160,63.9648,296.1609,0,U,53593,999,11044,.97438E-3,.16054E-3,0
STARLINK-4681,2022-104G,2024-08-20T09:25:45.992352,15.08851382,.0001434,53.2152,266.3043,94.9548,265.1608,0,U,53594,999,11059,.16254E-3,.2301E-4,0
STARLINK-4684,2022-104H,2024-08-20T11:06:27.190944,15.08839944,.0001207,53.2165,266.0274,95.1203,264.9927,0,U,53595,999,11046,.4182E-4,.378E-5,0
STARLINK-4668,2022-104J,2024-08-20T12:47:38.208768,15.21687259,.0004693,53.2100,256.6884,23.3609,336.7601,0,U,53596,999,11027,.17986E-2,.4112E-3,0
STARLINK-4682,2022-104K,2024-08-20T14:00:01.999872,15.25257659,.0000242,53.2192,264.4713,39.8987,64.8466,0,U,53597,999,570,.18722E-1,.511272E-2,0
STARLINK-4676,2022-104L,2024-08-20T08:53:55.502592,15.08843979,.0001284,53.2148,266.1635,92.8244,267.2895,0,U,53598,999,11012,.93041E-4,.1193E-4,0
STARLINK-4677,2022-104N,2024-08-20T08:50:07.493856,15.08835137,.0001411,53.2151,266.8409,96.4665,263.6488,0,U,53600,999,11011,-.22358E-4,-.644E-5,0
STARLINK-4675,2022-104P,2024-08-20T10:45:15.973920,15.08825296,.0001504,53.2173,265.9345,92.2076,267.9088,0,U,53601,999,11013,.8102E-4,.1001E-4,0
STARLINK-4648,2022-104Q,2024-08-20T10:53:51.464832,15.08842633,.0001162,53.2154,260.9929,75.2905,284.8216,0,U,53602,999,11020,.63619E-4,.725E-5,0
STARLINK-4692,2022-104R,2024-08-20T08:14:54.988800,15.08843060,.0001431,53.2163,261.7223,95.6622,264.4534,0,U,53603,999,11018,.94034E-4,.1209E-4,0
STARLINK-4690,2022-104S,2024-08-20T10:43:14.575008,15.08841834,.0001319,53.2148,260.9437,89.7305,270.3839,0,U,53604,999,11020,.27533E-4,.15E-5,0
STARLINK-4693,2022-104T,2024-08-20T08:59:13.973856,15.08844552,.0001309,53.2156,266.1836,94.0422,266.0720,0,U,53605,999,11012,.23424E-4,.85E-6,0
STARLINK-4590,2022-104U,2024-08-20T08:07:37.376256,15.08842485,.0001547,53.2148,256.6835,96.3046,263.8122,0,U,53606,999,10956,.53952E-4,.571E-5,0
STARLINK-4591,2022-104V,2024-08-20T07:59:00.189312,15.08840093,.0001705,53.2162,261.6496,85.3309,274.7878,0,U,53607,999,11018,.82168E-4,.102E-4,0
STARLINK-4647,2022-104W,2024-08-20T13:04:22.526688,15.08853940,.0001415,53.2162,255.8351,87.6237,272.4917,0,U,53608,999,11016,.71442E-4,.85E-5,0
STARLINK-4660,2022-104X,2024-08-20T08:46:37.988544,15.08842996,.0001359,53.2159,261.1464,92.9520,267.1628,0,U,53609,999,11019,.13264E-4,-.77E-6,0
STARLINK-4610,2022-104Y,2024-08-20T08:08:59.923680,15.08847968,.0001441,53.2141,256.6907,84.0570,276.0586,0,U,53610,999,11013,.16396E-3,.2323E-4,0
STARLINK-4650,2022-104Z,2024-08-20T10:22:47.821152,15.13699649,.0002131,53.2161,250.3399,89.5391,270.5848,0,U,53611,999,11035,.10758E-2,.19343E-3,0
STARLINK-4658,2022-104AA,2024-08-20T08:02:18.741696,15.08846082,.0001487,53.2152,256.6615,84.8838,275.2324,0,U,53612,999,11013,.28365E-4,.164E-5,0
STARLINK-4655,2022-104AB,2024-08-20T08:12:55.468224,15.08835881,.0001259,53.2135,256.7047,91.9662,268.1475,0,U,53613,999,11013,-.11622E-3,-.2137E-4,0
STARLINK-4605,2022-104AE,2024-08-20T07:58:18.392448,15.08842761,.0001369,53.2158,246.4732,94.7206,265.3943,0,U,53616,999,11038,.51527E-4,.532E-5,0
STARLINK-4601,2022-104AF,2024-08-20T07:57:00.425952,15.08846450,.000139,53.2166,256.6382,95.7628,264.3522,0,U,53617,999,11013,.71855E-4,.856E-5,0
STARLINK-4604,2022-104AG,2024-08-20T10:51:51.590016,15.08844981,.0000579,53.2148,255.9763,52.5771,307.5273,0,U,53618,999,10957,.16615E-3,.2358E-4,0
STARLINK-4609,2022-104AH,2024-08-20T07:51:42.043680,15.08846825,.000148,53.2160,256.6152,89.3659,270.7503,0,U,53619,999,11013,.3372E-4,.249E-5,0
STARLINK-4615,2022-104AJ,2024-08-20T10:41:14.892864,15.08843135,.0000887,53.2148,255.9302,89.7309,270.3784,0,U,53620,999,11026,.12065E-3,.1633E-4,0
STARLINK-4608,2022-104AK,2024-08-20T06:11:00.734496,15.08843662,.000124,53.2140,256.8920,86.4423,273.6710,0,U,53621,999,11012,.90548E-4,.1154E-4,0
STARLINK-4568,2022-104AL,2024-08-20T08:34:02.121600,15.08837429,.0001325,53.2154,256.0889,92.9725,267.1419,0,U,53622,999,11025,.16592E-5,-.261E-5,0
STARLINK-4573,2022-104AM,2024-08-20T10:46:33.610368,15.08842309,.000159,53.2148,255.9519,87.4886,272.6288,0,U,53623,999,11026,.60921E-4,.682E-5,0
STARLINK-4596,2022-104AN,2024-08-20T08:55:15.449376,15.08840101,.000131,53.2154,256.1818,74.6501,285.4636,0,U,53624,999,11025,-.20571E-5,-.321E-5,0
STARLINK-4603,2022-104AP,2024-08-20T10:35:56.927904,15.08841186,.0001518,53.2162,255.9043,99.5034,260.6130,0,U,53625,999,11026,.76194E-4,.925E-5,0
