STARLINK-4671           
1 53593U 22104F   24233.32954900  .00016054  00000+0  97438-3 0  9999
2 53593  53.2158 266.6160 0002564  63.9648 296.1609 15.10674852110443
STARLINK-4681           
1 53594U 22104G   24233.39289343  .00002301  00000+0  16254-3 0  9996
2 53594  53.2152 266.3043 0001434  94.9548 265.1608 15.08851382110596
STARLINK-4684           
1 53595U 22104H   24233.46281471  .00000378  00000+0  41820-4 0  9999
2 53595  53.2165 266.0274 0001207  95.1203 264.9927 15.08839944110460
STARLINK-4668           
1 53596U 22104J   24233.53308112  .00041120  00000+0  17986-2 0  9994
2 53596  53.2100 256.6884 0004693  23.3609 336.7601 15.21687259110278
STARLINK-4682           
1 53597U 22104K   24233.58335648  .00511272  00000+0  18722-1 0  9992
2 53597  53.2192 264.4713 0000242  39.8987  64.8466 15.25257659  5705
STARLINK-4676           
1 53598U 22104L   24233.37078128  .00001193  00000+0  93041-4 0  9993
2 53598  53.2148 266.1635 0001284  92.8244 267.2895 15.08843979110126
STARLINK-4677           
1 53600U 22104N   24233.36814229 -.00000644  00000+0 -22358-4 0  9991
2 53600  53.2151 266.8409 0001411  96.4665 263.6488 15.08835137110113
STARLINK-4675           
1 53601U 22104P   24233.44810155  .00001001  00000+0  81020-4 0  9992
2 53601  53.2173 265.9345 0001504  92.2076 267.9088 15.08825296110130
STARLINK-4648           
1 53602U 22104Q   24233.45406788  .00000725  00000+0  63619-4 0  9993
2 53602  53.2154 260.9929 0001162  75.2905 284.8216 15.08842633110208
STARLINK-4692           
1 53603U 22104R   24233.34369200  .00001209  00000+0  94034-4 0  9992
2 53603  53.2163 261.7223 0001431  95.6622 264.4534 15.08843060110185
STARLINK-4690           
1 53604U 22104S   24233.44669647  .00000150  00000+0  27533-4 0  9996
2 53604  53.2148 260.9437 0001319  89.7305 270.3839 15.08841834110208
STARLINK-4693           
1 53605U 22104T   24233.37446729  .00000085  00000+0  23424-4 0  9995
2 53605  53.2156 266.1836 0001309  94.0422 266.0720 15.08844552110129
STARLINK-4590           
1 53606U 22104U   24233.33862704  .00000571  00000+0  53952-4 0  9996
2 53606  53.2148 256.6835 0001547  96.3046 263.8122 15.08842485109565
STARLINK-4591           
1 53607U 22104V   24233.33264108  .00001020  00000+0  82168-4 0  9992
2 53607  53.2162 261.6496 0001705  85.3309 274.7878 15.08840093110189
STARLINK-4647           
1 53608U 22104W   24233.54470517  .00000850  00000+0  71442-4 0  9992
2 53608  53.2162 255.8351 0001415  87.6237 272.4917 15.08853940110160
STARLINK-4660           
1 53609U 22104X   24233.36571746 -.00000077  00000+0  13264-4 0  9999
2 53609  53.2159 261.1464 0001359  92.9520 267.1628 15.08842996110195
STARLINK-4610           
1 53610U 22104Y   24233.33958245  .00002323  00000+0  16396-3 0  9994
2 53610  53.2141 256.6907 0001441  84.0570 276.0586 15.08847968110138
STARLINK-4650           
1 53611U 22104Z   24233.43249793  .00019343  00000+0  10758-2 0  9992
2 53611  53.2161 250.3399 0002131  89.5391 270.5848 15.13699649110356
STARLINK-4658           
1 53612U 22104AA  24233.33493914  .00000164  00000+0  28365-4 0  9994
2 53612  53.2152 256.6615 0001487  84.8838 275.2324 15.08846082110130
STARLINK-4655           
1 53613U 22104AB  24233.34230866 -.00002137  00000+0 -11622-3 0  9992
2 53613  53.2135 256.7047 0001259  91.9662 268.1475 15.08835881110136
STARLINK-4605           
1 53616U 22104AE  24233.33215732  .00000532  00000+0  51527-4 0  9993
2 53616  53.2158 246.4732 0001369  94.7206 265.3943 15.08842761110389
STARLINK-4601           
1 53617U 22104AF  24233.33125493  .00000856  00000+0  71855-4 0  9993
2 53617  53.2166 256.6382 0001390  95.7628 264.3522 15.08846450110130
STARLINK-4604           
1 53618U 22104AG  24233.45268044  .00002358  00000+0  16615-3 0  9998
2 53618  53.2148 255.9763 0000579  52.5771 307.5273 15.08844981109570
STARLINK-4609           
1 53619U 22104AH  24233.32756995  .00000249  00000+0  33720-4 0  9996
2 53619  53.2160 256.6152 0001480  89.3659 270.7503 15.08846825110130
STARLINK-4615           
1 53620U 22104AJ  24233.44531126  .00001633  00000+0  12065-3 0  9994
2 53620  53.2148 255.9302 0000887  89.7309 270.3784 15.08843135110265
STARLINK-4608           
1 53621U 22104AK  24233.25764739  .00001154  00000+0  90548-4 0  9993
2 53621  53.2140 256.8920 0001240  86.4423 273.6710 15.08843662110124
STARLINK-4568           
1 53622U 22104AL  24233.35696900 -.00000261  00000+0  16592-5 0  9996
2 53622  53.2154 256.0889 0001325  92.9725 267.1419 15.08837429110259
STARLINK-4573           
1 53623U 22104AM  24233.44900012  .00000682  00000+0  60921-4 0  9999
2 53623  53.2148 255.9519 0001590  87.4886 272.6288 15.08842309110261
STARLINK-4596           
1 53624U 22104AN  24233.37170659 -.00000321  00000+0 -20571-5 0  9998
2 53624  53.2154 256.1818 0001310  74.6501 285.4636 15.08840101110252
STARLINK-4603           
1 53625U 22104AP  24233.44163111  .00000925  00000+0  76194-4 0  9991
2 53625  53.2162 255.9043 0001518  99.5034 260.6130 15.08841186110265
